STARLINK-31610          
1 59473U 24068U   26068.28991497 -.00000914  00000+0 -23711-4 0  9992
2 59473  43.0045  36.5943 0000973 265.7582  94.3159 15.27581319108462
TOMORROW-S3             
1 62392U 24247R   26068.49782200  .00007664  00000+0  28858-3 0  9991
2 62392  44.9999 117.9871 0000396 320.9462  39.1392 15.27672122 67708
